NORAD_CAT_ID,OBJECT_NAME,OBJECT_TYPE,EPOCH,MEAN_MOTION,ECCENTRICITY,INCLINATION,RA_OF_ASC_NODE,ARG_OF_PERICENTER,MEAN_ANOMALY,BSTAR,MEAN_MOTION_DOT,MEAN_MOTION_DDOT,TLE_LINE0,TLE_LINE1,TLE_LINE2,SEMIMAJOR_AXIS,PERIOD,APOGEE,PERIGEE,DECAYED
53626.0,STARLINK-4554,PAYLOAD,2023-02-16 10:36:26,15.088409,0.0001396,53.2133,209.2836,84.1178,275.9973,4.1191e-05,3.68e-06,0.0,0 STARLINK-4554,1 53626U 22104AQ  23047.44196973  .00000368  00000-0  41191-4 0  9997,2 53626  53.2133 209.2836 0001396  84.1178 275.9973 15.08840900 26408,6917.878,95.437,540.708,538.777,0.0
53626.0,STARLINK-4554,PAYLOAD,2023-02-16 20:08:44,15.08847514,0.0001431,53.2133,207.4988,85.2834,274.8321,3.0508e-05,1.98e-06,0.0,0 STARLINK-4554,1 53626U 22104AQ  23047.83940446  .00000198  00000-0  30508-4 0  9993,2 53626  53.2133 207.4988 0001431  85.2834 274.8321 15.08847514 27153,6917.857,95.437,540.712,538.732,0.0
53626.0,STARLINK-4554,PAYLOAD,2023-02-17 10:27:13,15.08852976,0.0001788,53.2102,204.822,85.189,274.9306,-0.00030394,-5.124e-05,0.0,0 STARLINK-4554,1 53626U 22104AQ  23048.43557297 -.00005124  00000-0 -30394-3 0  9996,2 53626  53.2102 204.8220 0001788  85.1890 274.9306 15.08852976 27247,6917.841,95.437,540.943,538.469,0.0
53626.0,STARLINK-4554,PAYLOAD,2023-02-17 16:48:46,15.08831733,0.0001166,53.2136,203.6327,90.261,269.8516,-7.288e-05,-1.447e-05,0.0,0 STARLINK-4554,1 53626U 22104AQ  23048.70053789 -.00001447  00000-0 -72880-4 0  9994,2 53626  53.2136 203.6327 0001166  90.2610 269.8516 15.08831733 26597,6917.906,95.438,540.577,538.964,0.0
53626.0,STARLINK-4554,PAYLOAD,2023-02-18 10:18:00,15.08837155,0.0001195,53.2139,200.3624,81.6131,278.4997,-8.4713e-05,-1.636e-05,0.0,0 STARLINK-4554,1 53626U 22104AQ  23049.42917735 -.00001636  00000-0 -84713-4 0  9992,2 53626  53.2139 200.3624 0001195  81.6131 278.4997 15.08837155 27390,6917.889,95.438,540.581,538.927,0.0
53626.0,STARLINK-4554,PAYLOAD,2023-02-18 19:50:19,15.08841077,0.0001208,53.2139,198.5784,85.4168,274.6962,-3.7734e-05,-8.88e-06,0.0,0 STARLINK-4554,1 53626U 22104AQ  23049.82661324 -.00000888  00000-0 -37734-4 0  9995,2 53626  53.2139 198.5784 0001208  85.4168 274.6962 15.08841077 26760,6917.877,95.437,540.578,538.906,0.0
53626.0,STARLINK-4554,PAYLOAD,2023-02-19 14:54:57,15.08833205,0.0001288,53.2144,195.0087,96.1947,263.9192,9.972e-05,1.299e-05,0.0,0 STARLINK-4554,1 53626U 22104AQ  23050.62149584  .00001299  00000-0  99720-4 0  9992,2 53626  53.2144 195.0087 0001288  96.1947 263.9192 15.08833205 27576,6917.901,95.438,540.657,538.875,0.0
53626.0,STARLINK-4554,PAYLOAD,2023-02-20 08:24:12,15.08833181,0.0001104,53.2154,191.7395,87.2638,272.8481,-3.0006e-05,-7.65e-06,0.0,0 STARLINK-4554,1 53626U 22104AQ  23051.35014337 -.00000765  00000-0 -30006-4 0  9991,2 53626  53.2154 191.7395 0001104  87.2638 272.8481 15.08833181 26995,6917.901,95.438,540.53,539.002,0.0
53626.0,STARLINK-4554,PAYLOAD,2023-02-20 13:10:21,15.08834157,0.0001122,53.2159,190.8486,90.6856,269.4264,-1.6145e-05,-5.45e-06,0.0,0 STARLINK-4554,1 53626U 22104AQ  23051.54886265 -.00000545  00000-0 -16145-4 0  9993,2 53626  53.2159 190.8486 0001122  90.6856 269.4264 15.08834157 27717,6917.898,95.438,540.539,538.987,0.0
53626.0,STARLINK-4554,PAYLOAD,2023-02-21 01:53:26,15.08843514,0.0001103,53.2147,188.4688,88.9967,271.1152,-5.4324e-06,-3.74e-06,0.0,0 STARLINK-4554,1 53626U 22104AQ  23052.07877528 -.00000374  00000-0 -54324-5 0  9996,2 53626  53.2147 188.4688 0001103  88.9967 271.1152 15.08843514 27109,6917.87,95.437,540.498,538.972,0.0
53626.0,STARLINK-4554,PAYLOAD,2023-02-21 14:36:31,15.08843909,0.000128,53.2165,186.0899,93.9748,266.139,-1.6646e-05,-5.53e-06,0.0,0 STARLINK-4554,1 53626U 22104AQ  23052.60869667 -.00000553  00000-0 -16646-4 0  9993,2 53626  53.2165 186.0899 0001280  93.9748 266.1390 15.08843909 27876,6917.868,95.437,540.619,538.848,0.0
53626.0,STARLINK-4554,PAYLOAD,2023-02-21 16:11:54,15.08844677,0.0001255,53.2164,185.7934,89.2312,270.8824,-5.0783e-06,-3.69e-06,0.0,0 STARLINK-4554,1 53626U 22104AQ  23052.67493546 -.00000369  00000-0 -50783-5 0  9995,2 53626  53.2164 185.7934 0001255  89.2312 270.8824 15.08844677 27886,6917.866,95.437,540.599,538.863,0.0
53626.0,STARLINK-4554,PAYLOAD,2023-02-22 08:05:45,15.08836884,0.0001237,53.2168,182.8188,96.2057,263.9076,1.6832e-05,-2e-07,0.0,0 STARLINK-4554,1 53626U 22104AQ  23053.33733796 -.00000020  00000-0  16832-4 0  9992,2 53626  53.2168 182.8188 0001237  96.2057 263.9076 15.08836884 27291,6917.89,95.438,540.611,538.899,0.0
53626.0,STARLINK-4554,PAYLOAD,2023-02-22 12:51:55,15.08838955,0.0001266,53.2171,181.927,95.8905,264.2232,2.6189e-05,1.29e-06,0.0,0 STARLINK-4554,1 53626U 22104AQ  23053.53605662  .00000129  00000-0  26189-4 0  9999,2 53626  53.2171 181.9270 0001266  95.8905 264.2232 15.08838955 28016,6917.884,95.438,540.624,538.873,0.0
53626.0,STARLINK-4554,PAYLOAD,2023-02-23 07:56:33,15.08832811,0.0001395,53.2141,178.3571,83.9878,276.1273,3.6133e-06,-2.3e-06,0.0,0 STARLINK-4554,1 53626U 22104AQ  23054.33094082 -.00000230  00000-0  36133-5 0  9991,2 53626  53.2141 178.3571 0001395  83.9878 276.1273 15.08832811 28132,6917.902,95.438,540.732,538.802,0.0
53626.0,STARLINK-4554,PAYLOAD,2023-02-23 14:18:05,15.08840227,0.000126,53.2158,177.1686,75.479,284.6342,-5.634e-05,-1.184e-05,0.0,0 STARLINK-4554,1 53626U 22104AQ  23054.59589937 -.00001184  00000-0 -56340-4 0  9998,2 53626  53.2158 177.1686 0001260  75.4790 284.6342 15.08840227 27482,6917.88,95.438,540.616,538.873,0.0
53626.0,STARLINK-4554,PAYLOAD,2023-02-24 12:33:29,15.08838542,0.0001536,53.2156,173.0068,83.8751,276.2416,-1.0632e-05,-4.57e-06,0.0,0 STARLINK-4554,1 53626U 22104AQ  23055.52325882 -.00000457  00000-0 -10632-4 0  9995,2 53626  53.2156 173.0068 0001536  83.8751 276.2416 15.08838542 28314,6917.885,95.438,540.812,538.687,0.0
53626.0,STARLINK-4554,PAYLOAD,2023-02-24 17:19:38,15.08840919,0.0001305,53.2144,172.113,90.6549,269.4592,2.1618e-05,5.6e-07,0.0,0 STARLINK-4554,1 53626U 22104AQ  23055.72197517  .00000056  00000-0  21618-4 0  9998,2 53626  53.2144 172.1130 0001305  90.6549 269.4592 15.08840919 27652,6917.878,95.437,540.645,538.84,0.0
53626.0,STARLINK-4554,PAYLOAD,2023-02-25 01:16:34,15.08829328,0.0001165,53.2151,170.6244,98.9356,261.1768,4.9445e-05,4.99e-06,0.0,0 STARLINK-4554,1 53626U 22104AQ  23056.05317968  .00000499  00000-0  49445-4 0  9998,2 53626  53.2151 170.6244 0001165  98.9356 261.1768 15.08829328 27701,6917.913,95.438,540.584,538.972,0.0
53626.0,STARLINK-4554,PAYLOAD,2023-02-25 12:24:17,15.08825112,0.0001443,53.2148,168.5457,94.163,265.9527,-4.4037e-05,-9.88e-06,0.0,0 STARLINK-4554,1 53626U 22104AQ  23056.51687098 -.00000988  00000-0 -44037-4 0  9990,2 53626  53.2148 168.5457 0001443  94.1630 265.9527 15.08825112 27770,6917.926,95.438,540.789,538.793,0.0
53626.0,STARLINK-4554,PAYLOAD,2023-02-25 13:59:40,15.08827737,0.0001463,53.2147,168.2472,104.2811,255.8343,-4.8782e-05,-1.064e-05,0.0,0 STARLINK-4554,1 53626U 22104AQ  23056.58310945 -.00001064  00000-0 -48782-4 0  9998,2 53626  53.2147 168.2472 0001463 104.2811 255.8343 15.08827737 28476,6917.918,95.438,540.795,538.771,0.0
53626.0,STARLINK-4554,PAYLOAD,2023-02-26 07:28:54,15.08843856,0.0001744,53.2158,164.9728,131.1378,228.9765,2.7654e-05,1.52e-06,0.0,0 STARLINK-4554,1 53626U 22104AQ  23057.31173655  .00000152  00000-0  27654-4 0  9995,2 53626  53.2158 164.9728 0001744 131.1378 228.9765 15.08843856 27898,6917.869,95.437,540.94,538.527,0.0
53626.0,STARLINK-4554,PAYLOAD,2023-02-26 10:39:39,15.08852093,0.0001266,53.2143,164.3805,103.3458,256.7676,0.00012025,1.627e-05,0.0,0 STARLINK-4554,1 53626U 22104AQ  23057.44420937  .00001627  00000-0  12025-3 0  9990,2 53626  53.2143 164.3805 0001266 103.3458 256.7676 15.08852093 28604,6917.843,95.437,540.584,538.833,0.0
53626.0,STARLINK-4554,PAYLOAD,2023-02-26 17:01:11,15.08859365,0.0001547,53.216,163.191,115.3276,244.7876,0.00016878,2.401e-05,0.0,0 STARLINK-4554,1 53626U 22104AQ  23057.70916003  .00002401  00000-0  16878-3 0  9994,2 53626  53.2160 163.1910 0001547 115.3276 244.7876 15.08859365 27955,6917.821,95.436,540.756,538.616,0.0
53626.0,STARLINK-4554,PAYLOAD,2023-02-27 07:19:41,15.08827725,0.0001631,53.2143,160.5128,113.2367,246.8797,1.6494e-05,-2.6e-07,0.0,0 STARLINK-4554,1 53626U 22104AQ  23058.30534713 -.00000026  00000-0  16494-4 0  9992,2 53626  53.2143 160.5128 0001631 113.2367 246.8797 15.08827725 28041,6917.918,95.438,540.911,538.655,0.0
53626.0,STARLINK-4554,PAYLOAD,2023-02-27 16:52:00,15.08841963,0.0001411,53.215,158.7273,112.4666,247.6476,2.6952e-05,1.41e-06,0.0,0 STARLINK-4554,1 53626U 22104AQ  23058.70277867  .00000141  00000-0  26952-4 0  9997,2 53626  53.2150 158.7273 0001411 112.4666 247.6476 15.08841963 28108,6917.874,95.437,540.716,538.763,0.0
53626.0,STARLINK-4554,PAYLOAD,2023-02-28 11:56:37,15.08847112,0.000114,53.2154,155.1622,95.9331,264.1791,-0.00012674,-2.305e-05,0.0,0 STARLINK-4554,1 53626U 22104AQ  23059.49766042 -.00002305  00000-0 -12674-3 0  9993,2 53626  53.2154 155.1622 0001140  95.9331 264.1791 15.08847112 28919,6917.859,95.437,540.512,538.935,0.0
53626.0,STARLINK-4554,PAYLOAD,2023-02-28 15:07:23,15.08848536,0.0001161,53.2156,154.5674,96.5961,263.5163,-0.0001093,-2.027e-05,0.0,0 STARLINK-4554,1 53626U 22104AQ  23059.63013811 -.00002027  00000-0 -10930-3 0  9992,2 53626  53.2156 154.5674 0001161  96.5961 263.5163 15.08848536 28939,6917.854,95.437,540.522,538.916,0.0
53626.0,STARLINK-4554,PAYLOAD,2023-03-01 05:25:53,15.08819642,0.000125,53.2163,151.8932,85.8553,274.2582,-1.9032e-05,-5.91e-06,0.0,0 STARLINK-4554,1 53626U 22104AQ  23060.22631715 -.00000591  00000-0 -19032-4 0  9995,2 53626  53.2163 151.8932 0001250  85.8553 274.2582 15.08819642 28335,6917.943,95.439,540.672,538.943,0.0
53626.0,STARLINK-4554,PAYLOAD,2023-03-01 21:19:44,15.08838124,0.0001219,53.2158,148.9177,78.421,281.6919,-9.0446e-05,-1.727e-05,0.0,0 STARLINK-4554,1 53626U 22104AQ  23060.88871347 -.00001727  00000-0 -90446-4 0  9994,2 53626  53.2158 148.9177 0001219  78.4210 281.6919 15.08838124 29120,6917.886,95.438,540.594,538.908,0.0
